{"type":"FeatureCollection","name":"Batas Administrasi Desa Kubang Tangah","features":[{"type":"Feature","properties":{"name":"Batas Desa Kubang Tangah","originalName":"Batas Luar Desa","boundaryType":"desa","source":"Peta Presisi Desa Kubang Tangah.kmz"},"geometry":{"type":"Polygon","coordinates":[[[100.7702068439154,-0.69389882163480743],[100.7703744771605,-0.69411502339440179],[100.77050853305251,-0.69466465358659613],[100.7708522445632,-0.69555275941588268],[100.7707759562157,-0.69585035485161051],[100.7704333179106,-0.696304989522605],[100.7704055002027,-0.69634302014651062],[100.7702026082745,-0.69657079510167241],[100.7699208077066,-0.696931306787567],[100.7698910747133,-0.69694166665523694],[100.769857024955,-0.69696894854690516],[100.769368824664,-0.69714931708566064],[100.76911222064329,-0.69723615102340841],[100.76906561194571,-0.69724211997228625],[100.76894701437,-0.69724749845301948],[100.76815953321361,-0.69729605546206774],[100.7680156722576,-0.69729487301695914],[100.7678612023041,-0.69733590749844188],[100.7678463695235,-0.69735904959915851],[100.7677913394332,-0.69739877450896637],[100.7677638093321,-0.69743660547131181],[100.7676558526038,-0.69757943635851927],[100.76764949001129,-0.69760473899811415],[100.7675793845752,-0.69809813547275634],[100.7675709136696,-0.69813180877233127],[100.7675603264786,-0.69817389462999557],[100.7675518579036,-0.69820755860309758],[100.767486261555,-0.69846831391160424],[100.76747568729751,-0.69851034801470824],[100.76726463480379,-0.69884947178401247],[100.76724565277139,-0.698889266589144],[100.76719926827511,-0.69893091421517917],[100.7671086373046,-0.69907726312400309],[100.76700321525929,-0.69938268194421183],[100.7667363577291,-0.69981387230864645],[100.7667252581652,-0.69985642850115359],[100.7665925696005,-0.70012176987372654],[100.76657299209759,-0.70016208237678157],[100.76645744289171,-0.70043149736287391],[100.7664463781461,-0.70047395533970813],[100.76636190672011,-0.70062427210958778],[100.7661115047792,-0.70078592998159928],[100.7660580540163,-0.7008173698330068],[100.7655057568999,-0.701027387880686],[100.7653806060853,-0.70126606768582356],[100.7653718377712,-0.70129991815754023],[100.7653630705433,-0.70133376443826823],[100.765356495835,-0.70135914639905717],[100.7650536279703,-0.7015515740886733],[100.7650514422222,-0.70156002738081047],[100.7647224530776,-0.70188956218143894],[100.76469681111681,-0.70191895568104257],[100.7646605319004,-0.7019545993673092],[100.764617973428,-0.7019796129567849],[100.764443209277,-0.70213242868560466],[100.7644069669325,-0.70216803899404223],[100.7642052523332,-0.70225080742402035],[100.7641881200137,-0.70228233808535212],[100.7641434554527,-0.70231573950649817],[100.763823135773,-0.70243962512401026],[100.7637785186148,-0.70247300007838676],[100.76374668086341,-0.70249171260602439],[100.7633524381604,-0.70265910475634685],[100.7633100361266,-0.702684030409315],[100.7632697916476,-0.70270054072916954],[100.7632232561287,-0.70270645605189963],[100.7627895555585,-0.70281853236653091],[100.76239378624381,-0.70306556515652974],[100.7623747741149,-0.70306960390434747],[100.76212321982111,-0.70321039929817009],[100.7620915216481,-0.70322904071032821],[100.7618909114948,-0.70331133131377532],[100.7616518713982,-0.70343126794781863],[100.761291833554,-0.70365849011788217],[100.7612572905841,-0.703686141950731],[100.7609021530714,-0.70389597173029694],[100.76088916510589,-0.7039108836697946],[100.76053104285739,-0.70423819585674463],[100.760515851768,-0.70426163037825773],[100.76048362856351,-0.70428066274168077],[100.76014196280209,-0.7045113696886216],[100.760107559642,-0.7045389137385516],[100.7598646457449,-0.704740153630187],[100.7598580107649,-0.7047657352673391],[100.75982585551721,-0.70478472203941578],[100.75977856636879,-0.70482708477983524],[100.7597420006434,-0.70486311332462859],[100.75935617763621,-0.70512698652211636],[100.7592813527598,-0.7054163110346805],[100.759268458313,-0.70543112602765035],[100.7592596616617,-0.70546514212114975],[100.75889486760759,-0.70586036053723145],[100.7588732326922,-0.70590910478598412],[100.7586712762468,-0.70620080928905715],[100.7586045652813,-0.706319204760811],[100.75847560031259,-0.70653889466172837],[100.7584712362937,-0.70655583069372452],[100.7584496705537,-0.70660444313006177],[100.7582714747399,-0.7069103577822673],[100.7582499425539,-0.70695890349889556],[100.7580915483051,-0.70718837604208384],[100.7580743905213,-0.70721997677927417],[100.75792375204369,-0.707595122975452],[100.7576437695337,-0.70805301402335019],[100.757596991929,-0.70809479688147547],[100.75739036263251,-0.70837337639452291],[100.757375445274,-0.70839642166117389],[100.757309680536,-0.708442187450928],[100.75727788117671,-0.70846086350489057],[100.7571246053799,-0.70876974428440587],[100.7569042268929,-0.70912332771825515],[100.7567137179751,-0.70950225630885433],[100.75661301616191,-0.71005823527157541],[100.75595243365861,-0.71081275091141793],[100.7558159661624,-0.71122993787977351],[100.75579861287071,-0.71126161999238735],[100.75578569678559,-0.711276364215766],[100.7557406908109,-0.71130993507356333],[100.75541736990959,-0.71154259622598781],[100.7553982096393,-0.71154667540661165],[100.7553661558084,-0.711565479703039],[100.7550461257123,-0.71171743571197088],[100.7546708325402,-0.71190900166159288],[100.75464543211289,-0.711902440078641],[100.75413978453371,-0.71200602577488536],[100.754097182141,-0.71203103570007875],[100.75406523386739,-0.71204979106735511],[100.75363620903531,-0.71217293202028065],[100.75324616037079,-0.71221606056920017],[100.75321861738639,-0.71221793624700724],[100.75315507737029,-0.71221950276701473],[100.7522642864391,-0.71214218047940669],[100.7516909854151,-0.71212883273108141],[100.75167408045959,-0.7121244658704512],[100.7512914635289,-0.712070530811001],[100.7512576560809,-0.71206179777415124],[100.7512069446913,-0.71204869816964156],[100.75082472314389,-0.71185117082510141],[100.75081421824279,-0.71182150783028353],[100.7507762962933,-0.71175780554134571],[100.7505126479507,-0.71137504753140979],[100.7505127117864,-0.71133908195960249],[100.750487456864,-0.71126058072412024],[100.7503566665708,-0.71099274558257908],[100.7502995458408,-0.710968984540114],[100.7500921886968,-0.71089740833994064],[100.7500795104949,-0.71087612002066547],[100.7500117914755,-0.71085862701290981],[100.7499271428722,-0.71083676080922087],[100.7498932830849,-0.71082801424205333],[100.7497070554053,-0.7107799084575207],[100.74954198351671,-0.71079130441122018],[100.74950389430489,-0.71079947538894839],[100.7494679230676,-0.71079918811327047],[100.7492499909112,-0.71076990492618575],[100.749207673643,-0.7107589737297324],[100.7491399663941,-0.71074148392112835],[100.7490891856971,-0.71072836650349813],[100.7490299412197,-0.71071306277062762],[100.74893680911811,-0.71065298849906944],[100.7488034479442,-0.71057351199957264],[100.7487801591534,-0.71055848977122926],[100.748756869596,-0.71054346719893513],[100.7486848925963,-0.71050686042055988],[100.74843710502149,-0.71034375580918807],[100.7484159050625,-0.71032025820938471],[100.7483798687867,-0.71028391546324943],[100.7483331910922,-0.71021778216362685],[100.748301343486,-0.710164484565075],[100.74809748737459,-0.70985929947545834],[100.7480614128083,-0.70982291141696041],[100.7480443773518,-0.70978241447479307],[100.7479891599084,-0.70971399779975941],[100.7479402164131,-0.70962010637834594],[100.7478749192812,-0.70915912899917488],[100.7478811579478,-0.70886572062214648],[100.7478580959047,-0.70854696819754892],[100.7478403050295,-0.70830107385095586],[100.7478376693328,-0.70826464508649511],[100.7478356925581,-0.70823732351743662],[100.7478099943297,-0.70788214341278488],[100.74780933539679,-0.70787303623683018],[100.7478066996633,-0.707836607535633],[100.7478034049919,-0.70779107166479749],[100.7478007692512,-0.70775464297240065],[100.7477732110038,-0.7075003011285228],[100.7477712341788,-0.70747297962533751],[100.74785405382229,-0.70697262700022845],[100.74786118481811,-0.70694464661779033],[100.7478676568568,-0.70690755907309033],[100.7479713272859,-0.70644231747187269],[100.7481446831606,-0.70605442798459128],[100.7481407293356,-0.70599978491487181],[100.7482033544089,-0.70547342741379415],[100.7482111442941,-0.70545455413111291],[100.74827125093449,-0.7050199259425366],[100.7485817557113,-0.70412938882446052],[100.7485773006004,-0.70320715346877116],[100.7485546688287,-0.70272252530693358],[100.74855107523651,-0.70267290982825725],[100.74854478637729,-0.70258608181233217],[100.7485393958524,-0.70251165685702144],[100.7484811681619,-0.70187990690095692],[100.74847937108569,-0.70185509590706308],[100.7484757769101,-0.70180547362509071],[100.7487895562322,-0.70097213109002643],[100.74878865793259,-0.70095972392031025],[100.7487212795139,-0.70002910760101456],[100.7487122949094,-0.699905014694344],[100.7487042086066,-0.699793328993333],[100.7486797769417,-0.69928361420957741],[100.7486779798416,-0.69925879294334392],[100.7486601803737,-0.69918522540597983],[100.748430192299,-0.69876519028073736],[100.7483920677455,-0.69875547130140814],[100.7479360010272,-0.69831432360446044],[100.7479048868359,-0.69822922879374894],[100.7475543547681,-0.69786775268011547],[100.7475401455592,-0.69784382290164182],[100.7474860075512,-0.69778534392985059],[100.74687933847569,-0.69750476143734508],[100.74686422652179,-0.69746841479619159],[100.7465643798065,-0.69729042143703368],[100.74631643366131,-0.69689584249894754],[100.74631374176759,-0.696858627490744],[100.7462569423168,-0.69676297618358629],[100.74533501979241,-0.69643061386223915],[100.7452578907545,-0.6963987806464067],[100.7451417471037,-0.69634482737156922],[100.744561910134,-0.69608745910808068],[100.7445352997194,-0.69606444058651729],[100.7444944848001,-0.696017505782475],[100.7444270586372,-0.69594755159371746],[100.7443844442859,-0.69587580158938278],[100.7437619433899,-0.69554665528541038],[100.74303703728,-0.69483819340023911],[100.742951577435,-0.69452002829746273],[100.74284407556721,-0.69355465908759661],[100.74284227335809,-0.69352983472651],[100.7427868160308,-0.69310960297514068],[100.74278230995959,-0.69304753752981541],[100.7427769025896,-0.692973058051133],[100.7427072268332,-0.69252885495983918],[100.74276246190171,-0.69173499605257738],[100.7426315306771,-0.6904478434312542],[100.7426403304857,-0.69039733147190441],[100.7426525706211,-0.68953603502288452],[100.74265166924739,-0.68952362964877789],[100.74276655286189,-0.68853006584777021],[100.7427744527108,-0.68846713128524339],[100.7429082795921,-0.68773399406123847],[100.7429064769177,-0.68770917614560723],[100.74298140204669,-0.68736694483625371],[100.7434025681933,-0.68749865147240807],[100.7435018282367,-0.68749147161412394],[100.74362680401281,-0.68749490617888487],[100.7437136564639,-0.687488623740437],[100.74445379382961,-0.68754735413590229],[100.7452203476397,-0.68745447987223],[100.7456287158405,-0.68723782091812258],[100.7459408266833,-0.68686912918066267],[100.7459390244091,-0.68684432362333636],[100.74612827592669,-0.68653139365891358],[100.74618468494261,-0.68627793683039273],[100.7463462292604,-0.68575499950374574],[100.7463510138429,-0.68530571646490324],[100.74633209409789,-0.68504519048990631],[100.7465019703649,-0.68480841227245393],[100.74678531084621,-0.68458836288304248],[100.7469109759983,-0.68442960360306426],[100.7469206809902,-0.68439148368824632],[100.74698861886981,-0.68412463853208016],[100.7469859176197,-0.68408741425359954],[100.74699292209149,-0.684012067714697],[100.7471014882605,-0.68361752741634008],[100.7471480226347,-0.68322744991496165],[100.747198160387,-0.68288698998352337],[100.7476463186686,-0.68339100052526391],[100.7476596258691,-0.68340251252638062],[100.748198005232,-0.68377521124342311],[100.7482760436482,-0.68381946032928975],[100.7487539714047,-0.6840468254039489],[100.7487805819609,-0.68406984631870427],[100.74884710779961,-0.6841273980979623],[100.7489127344225,-0.68417254164738683],[100.74938181852779,-0.68445041714134913],[100.74940842681281,-0.6844734363560343],[100.74946074515471,-0.68450706739632317],[100.7495511792503,-0.68455041273059392],[100.7496301043474,-0.68460706212781164],[100.7501052773592,-0.68479717322129174],[100.7501442891619,-0.68481929346616643],[100.7503287342015,-0.68495560303912129],[100.75064709343449,-0.6852193967795811],[100.75080521527531,-0.68568181490774449],[100.750807008278,-0.68570662408786065],[100.75096795138,-0.68638076224555766],[100.75100964529111,-0.686440086072291],[100.75109303222619,-0.6865587320081552],[100.7514522670738,-0.68704390062057208],[100.75146735798459,-0.68708020907351974],[100.7518823120686,-0.68747404403792856],[100.7520021287224,-0.6877520856804703],[100.7524666553963,-0.68814229050468534],[100.7528316968811,-0.68819067067970163],[100.7529575109314,-0.68820649829596514],[100.7536007663017,-0.68830953805517414],[100.7536379736772,-0.68830684658771213],[100.75368758363081,-0.68830325796050518],[100.754543358959,-0.68824135472967218],[100.75461866774511,-0.688248371585596],[100.7547550965263,-0.68823850307398693],[100.7550802432131,-0.688252376392858],[100.7551050487405,-0.68825058212384294],[100.7556463719222,-0.68813439262478626],[100.75600949914821,-0.68798342866127948],[100.7565084333075,-0.68798474250931352],[100.7565713637575,-0.68799265928054032],[100.75715893202739,-0.68801249865462932],[100.75719705062809,-0.68802221017868215],[100.7576332654935,-0.6881901556883967],[100.7583186782695,-0.688527087691354],[100.7590146454243,-0.6888382962278764],[100.7591192824501,-0.68890552886478762],[100.7592478252738,-0.68895856404721068],[100.760322839706,-0.68916752068753384],[100.7603724532897,-0.68916393115373464],[100.76049918621059,-0.689192161116848],[100.760639221086,-0.68923189469710622],[100.76075175029889,-0.68923621944527524],[100.7615218288191,-0.68936749478280357],[100.76205100905391,-0.68961591674827583],[100.7630273976131,-0.68966992848403563],[100.7636644165996,-0.68968616703556218],[100.7637043136976,-0.689720675401436],[100.7642671898972,-0.69009128160067434],[100.7643079798697,-0.69013818689451956],[100.7643974825037,-0.69016910391237529],[100.7650435507408,-0.69048381014487281],[100.765084336672,-0.6905307126088096],[100.7651242272868,-0.69056521645849489],[100.7656773072065,-0.69097386482747414],[100.76571630049671,-0.69099596891934811],[100.7661179661779,-0.69155261680700131],[100.766234938827,-0.69161892252571811],[100.7666391366612,-0.69203827204836876],[100.76728837970779,-0.69232701108886363],[100.7679321638594,-0.6926048403242443],[100.7683888942786,-0.6928837076238209],[100.7689795443671,-0.69329009750022241],[100.76900435988961,-0.69328830201294378],[100.7690557840077,-0.69330953152013208],[100.7698474596416,-0.69356412159006986],[100.77020842932269,-0.69389975487677846],[100.7702068439154,-0.69389882163480743]]]}},{"type":"Feature","properties":{"name":"Garis Pembagi Dusun 1","originalName":"Batas Dusun 1","boundaryType":"dusun","source":"Peta Presisi Desa Kubang Tangah.kmz"},"geometry":{"type":"LineString","coordinates":[[100.76442866011369,-0.69023818565609152],[100.7641092586381,-0.69109965897355075],[100.7639223356074,-0.69157357280555831],[100.7634846256891,-0.69225394591810552],[100.7637853211528,-0.69294884777141419],[100.7638016800435,-0.69300212759494939],[100.7638000669791,-0.69307267354914093],[100.763678608291,-0.69377547950293572],[100.7633167927509,-0.69424358199043512],[100.7628628949363,-0.69492047858577866],[100.7622738490951,-0.69538291960924092],[100.7613819113342,-0.69525893350882773],[100.760895217015,-0.69589880228646384],[100.7606956908256,-0.69622815215727119],[100.7606410037578,-0.69633229108048467],[100.7603197433844,-0.69749991396450894],[100.7603186938488,-0.69755241801043488],[100.7603165950524,-0.69765741206245147],[100.7605273307182,-0.69935730776281235],[100.7605252164622,-0.69946198115430258],[100.76050457714619,-0.699618593391351],[100.7604504152056,-0.69970469475662989],[100.760412325038,-0.69986087948086562],[100.7604687269085,-0.70139473242484129],[100.7606261929259,-0.70223233773734972],[100.7606251338771,-0.70228442230110721],[100.7607955245204,-0.703329132796466],[100.7608530741484,-0.70391951118035712]]}},{"type":"Feature","properties":{"name":"Garis Pembagi Dusun 2","originalName":"Batas Dusun 2","boundaryType":"dusun","source":"Peta Presisi Desa Kubang Tangah.kmz"},"geometry":{"type":"LineString","coordinates":[[100.7480844364824,-0.69842234117028767],[100.7496055365874,-0.70021095753833507],[100.75008822876271,-0.701107213910914],[100.75110445698471,-0.70260827284558658],[100.7516918554996,-0.70334500139544875],[100.7527851982735,-0.704527961094711],[100.75281203448981,-0.70458069119644162],[100.75287114918891,-0.70545345822110617],[100.7522715598234,-0.70672779906740979],[100.7529143152432,-0.70780810299486885],[100.7532652516368,-0.708784637840131],[100.7534600532486,-0.71013272661631344],[100.753514101702,-0.71029110485727576],[100.7536325290562,-0.71206311416880641],[100.7536463736274,-0.71216401202774149],[100.7536434989027,-0.71223950572513639]]}},{"type":"Feature","properties":{"name":"Garis Pembagi Dusun 3","originalName":"Batas Dusun 3","boundaryType":"dusun","source":"Peta Presisi Desa Kubang Tangah.kmz"},"geometry":{"type":"LineString","coordinates":[[100.75980002019941,-0.68923795941696031],[100.759551596632,-0.69012292742957249],[100.759504018446,-0.69021317538854554],[100.75893299632359,-0.69131806498933435],[100.7588633499952,-0.69138493723233008],[100.75879157374671,-0.69154283320120391],[100.7580382138344,-0.69273288147861534],[100.7580371694586,-0.6927783201929868],[100.7579897674923,-0.69286824818164328],[100.7578970600225,-0.69295722412850824],[100.7577569842454,-0.69313608506537094],[100.7572089616817,-0.69432783231217854],[100.7572079432846,-0.69437317506017493],[100.7571138527211,-0.6945299724595746],[100.7570213004595,-0.69461875016919128],[100.7564813713912,-0.695491295841344],[100.7564808734471,-0.69551393261116889],[100.75647888182451,-0.69560447294674932],[100.75640855118129,-0.69571622346556694],[100.75626990021181,-0.69584917440291671],[100.7554682742616,-0.69737025259380736],[100.7554221333513,-0.69741447423129577],[100.75532841936121,-0.69757063740269609],[100.7548765644618,-0.69864455097039935],[100.7548756183556,-0.69868963554779384],[100.7548732533368,-0.69880233531379976],[100.75482386828349,-0.6990042149991349],[100.7546034384749,-0.69983323582492185],[100.754579949748,-0.6998777812887178],[100.75452261707591,-0.70040054281263842],[100.75446590488821,-0.70100911263707966],[100.7543743268202,-0.70227031865660394],[100.7537584934354,-0.70261802708318521],[100.7528954944901,-0.702921270489733],[100.752870335256,-0.70305528862593858],[100.75284738939111,-0.70307723328639349],[100.75263695906609,-0.70347633076761673],[100.7526131466002,-0.70354306081273255],[100.7525214118652,-0.70363077816071329],[100.75232602898259,-0.70402226168679327]]}},{"type":"Feature","properties":{"name":"Garis Pembagi Dusun 4","originalName":"Untitled Path","boundaryType":"dusun","source":"Peta Presisi Desa Kubang Tangah.kmz"},"geometry":{"type":"LineString","coordinates":[[100.7604950234369,-0.69901036807106764],[100.76010429516251,-0.69931889751699472],[100.7597575538779,-0.69969601732736364],[100.7597114561314,-0.699740261373268],[100.75877586255319,-0.70019527811411553],[100.7579853298342,-0.70017885033890748],[100.7579401563882,-0.70017791160477316],[100.7575340175792,-0.70014688512998946],[100.7571237049676,-0.70034161429390107],[100.757100289585,-0.70038628829458116],[100.7568222916142,-0.7007642684699833],[100.7567976581464,-0.70087658952367515],[100.7567278795604,-0.70098795581151274],[100.7566117407473,-0.7011660138380712],[100.7562888758374,-0.70154266505799867],[100.7558783134893,-0.70178208863644231],[100.7553368099441,-0.701770838399091],[100.754844249208,-0.70153519526004615],[100.7547543651521,-0.70151078316035564],[100.7544304962904,-0.701393174623187]]}}]}
